ICEYE-X33               
1 60548U 24149CJ  26202.16997494  .00003160  00000+0  25283-3 0  9996
2 60548  97.7379 281.1440 0001834  67.8627 292.2792 15.00919464105300
ICEYE-X40               
1 60549U 24149CK  26202.16845208  .00001755  00000+0  15315-3 0  9995
2 60549  97.6800 278.1192 0003271 347.2707  12.8432 14.98101188105163
SATELIOT_1              
1 60550U 24149CL  26202.15699696  .00001865  00000+0  16214-3 0  9995
2 60550  97.6736 277.4893 0005050 334.7616  25.3359 14.98181033105153
BRO-14                  
1 60551U 24149CM  26202.16876406  .00001031  00000+0  96413-4 0  9998
2 60551  97.6863 277.3354 0006266 358.8468   1.2738 14.96248794105079
SATELIOT_3              
1 60552U 24149CN  26202.13292381  .00001032  00000+0  91910-4 0  9998
2 60552  97.6805 278.2900 0004463 339.6719  20.4325 14.98172553105162
BRO-15                  
1 60553U 24149CP  26202.15152412  .00000918  00000+0  86466-4 0  9993
2 60553  97.6789 276.8884 0007116 345.2617  14.8396 14.96228757105089
UM5-RIBAT               
1 60554U 24149CQ  26202.13368694  .00001575  00000+0  12729-3 0  9993
2 60554  97.6593 279.4723 0000478 259.2387 100.8784 15.01235042105287
UM5-EOSAT               
1 60555U 24149CR  26202.15560977  .00002190  00000+0  17277-3 0  9991
2 60555  97.6777 280.5141 0008843  19.7852 340.3714 15.01753343105316
LASARSAT                
1 62391U 24247Q   26202.06206775  .00027288  00000+0  50950-3 0  9993
2 62391  44.9738  71.5646 0008248 202.6776 157.3752 15.48302336 88561
CROCUBE                 
1 62394U 24247T   26202.01519432  .00031509  00000+0  54332-3 0  9997
2 62394  44.9714  68.5662 0008462 208.9546 151.0877 15.50495129 88592
TEVEL2-4                
1 63213U 25052D   26202.14118448  .00014414  00000+0  41715-3 0  9996
2 63213  97.3852  98.6089 0003012  40.1902 319.9564 15.35700911 75329
TEVEL2-5                
1 63214U 25052E   26202.16568451  .00013901  00000+0  40483-3 0  9993
2 63214  97.3850  98.5711 0003015  42.3199 317.8277 15.35512263 75323
TEVEL2-6                
1 63215U 25052F   26201.98329149  .00013929  00000+0  40616-3 0  9990
2 63215  97.3855  98.3732 0003116  44.6176 315.5318 15.35470217 75291
TEVEL2-1                
1 63217U 25052H   26201.95933923  .00012768  00000+0  37939-3 0  9994
2 63217  97.3828  97.9321 0003745  47.7905 312.3656 15.34894951 75276
TEVEL2-3                
1 63218U 25052J   26202.14823367  .00013736  00000+0  40703-3 0  9996
2 63218  97.3837  98.1475 0003544  49.1326 311.0224 15.34965852 75300
TEVEL2-2                
1 63219U 25052K   26201.95942480  .00013073  00000+0  38822-3 0  9996
2 63219  97.3828  97.9353 0003829  47.8008 312.3560 15.34907749 75275
TEVEL2-9                
1 63237U 25052AD  26201.26333412  .00009848  00000+0  31278-3 0  9992
2 63237  97.3892  96.5399 0007209  42.4598 317.7200 15.32827728 75098
TEVEL2-7                
1 63238U 25052AE  26202.15968763  .00012126  00000+0  38803-3 0  9999
2 63238  97.3894  97.3362 0007217  40.1547 320.0227 15.32531062 75222
TEVEL2-8                
1 63239U 25052AF  26202.16826639  .00012205  00000+0  39070-3 0  9991
2 63239  97.3894  97.3210 0007262  40.9817 319.1970 15.32516741 75224
FORESAIL-1 PRIME        
1 66778U 25276DS  26202.12314657  .00003186  00000+0  15562-3 0  9996
2 66778  97.4183 274.7763 0002397  30.1699 329.9673 15.18969690 35554
